ONEWEB-0412             
1 50489U 21132W   24082.59715470  .00000039  00000+0  66433-4 0  9996
2 50489  87.9184 138.0084 0002197  84.9028 275.2355 13.18686032114035
ONEWEB-0413             
1 50490U 21132X   24082.60190062  .00000035  00000+0  57006-4 0  9996
2 50490  87.9182 138.0209 0001909  86.7819 273.3532 13.18686736113971
ONEWEB-0414             
1 50491U 21132Y   24082.58765992  .00000067  00000+0  13738-3 0  9992
2 50491  87.9178 138.0056 0002297  91.9978 268.1418 13.18683762114008
ONEWEB-0417             
1 50492U 21132Z   24082.59556309  .00000062  00000+0  12494-3 0  9997
2 50492  87.9185 138.0006 0002313 105.6040 254.5347 13.18683769113987
ONEWEB-0418             
1 50493U 21132AA  24082.60493171 -.00026201  00000+0 -66541-1 0  9992
2 50493  87.9184 138.0058 0003015 110.5583 249.5873 13.18829604114047
ONEWEB-0419             
1 50494U 21132AB  24082.54655465  .00000066  00000+0  13579-3 0  9996
2 50494  87.9178 138.0373 0002207 110.2069 249.9300 13.18683922113958
ONEWEB-0420             
1 50495U 21132AC  24082.58925177  .00000088  00000+0  19155-3 0  9991
2 50495  87.9178 138.0375 0001728  92.0889 268.0441 13.18685990113950
ONEWEB-0421             
1 50496U 21132AD  24082.58290680 -.00000262  00000+0 -69822-3 0  9998
2 50496  87.9184 137.9978 0002288  88.1582 271.9812 13.18684955113992
